IRIDIUM 39              
1 25042U 97069D   25066.76141010  .00001118  00000+0  28945-3 0  9994
2 25042  86.3860 254.6114 0015968 287.8561  72.0901 14.48960217434276
IRIDIUM 44              
1 25078U 97077B   25066.82792061  .00000752  00000+0  23216-3 0  9996
2 25078  86.3901 264.0435 0002853  49.0424 311.1021 14.40077630429114
IRIDIUM 24              
1 25105U 97082B   25066.65328799  .00000655  00000+0  19388-3 0  9994
2 25105  86.3903 123.3810 0013207  60.3563 299.8951 14.41928055428587
IRIDIUM 51              
1 25262U 98018A   25066.83375955  .00030810  00000+0  87540-3 0  9995
2 25262  86.3842 105.7092 0099130 277.2941  81.7049 15.31151632431474
IRIDIUM 57              
1 25273U 98019B   25066.70422619  .00000743  00000+0  25032-3 0  9994
2 25273  86.4031 187.7364 0002142  93.9437 266.2005 14.35770229410223
